[Satellite]
VERSION=1.1
NAME=STARLINK-5259
NICKNAME=STARLINK-5259
TLE1=1 54209U 22141BE  22321.58334491  .00066265  00000+0  47373-3 0  9998
TLE2=2 54209  53.2165  42.2127 0003119  15.9972 126.8633 15.73152007  1303
STATUS=0
